start=new Date('2021-11-11T00:00:00.000Z').valueOf();
sats=[{"TIME_SYSTEM":"UTC","PERIAPSIS":"548.779","MEAN_MOTION_DOT":"0.00000112","CENTER_NAME":"EARTH","GP_ID":"189370446","MEAN_MOTION_DDOT":"0.0000000000000","ECCENTRICITY":"0.00013500","ARG_OF_PERICENTER":"67.3364","ELEMENT_SET_NO":"999","PERIOD":"95.644","OBJECT_NAME":"STARLINK-2093","MEAN_ANOMALY":"292.7767","RCS_SIZE":"LARGE","NORAD_CAT_ID":"47374","INCLINATION":"53.0535","SEMIMAJOR_AXIS":"6927.849","BSTAR":"0.00002687700000","FILE":"3210616","CLASSIFICATION_TYPE":"U","REF_FRAME":"TEME","COUNTRY_CODE":"US","TLE_LINE2":"2 47374  53.0535 315.8828 0001350  67.3364 292.7767 15.05584527 44854","MEAN_MOTION":"15.05584527","OBJECT_ID":"2021-005AB","LAUNCH_DATE":"2021-01-20","EPOCH":"2021-11-10T09:25:26.239584","MEAN_ELEMENT_THEORY":"SGP4","TLE_LINE1":"1 47374U 21005AB  21314.39266481  .00000112  00000-0  26877-4 0  9991","REV_AT_EPOCH":"4485","OBJECT_TYPE":"PAYLOAD","SITE":"AFETR","DECAY_DATE":null,"APOAPSIS":"550.649","EPHEMERIS_TYPE":"0","RA_OF_ASC_NODE":"315.8828"},{"MEAN_MOTION_DDOT":"0.0000000000000","GP_ID":"189369948","PERIAPSIS":"546.090","CENTER_NAME":"EARTH","MEAN_MOTION_DOT":"0.00000189","TIME_SYSTEM":"UTC","ARG_OF_PERICENTER":"74.1021","ECCENTRICITY":"0.00016270","SEMIMAJOR_AXIS":"6925.352","INCLINATION":"53.0556","NORAD_CAT_ID":"47375","RCS_SIZE":"LARGE","MEAN_ANOMALY":"286.0148","OBJECT_NAME":"STARLINK-2094","PERIOD":"95.592","ELEMENT_SET_NO":"999","REF_FRAME":"TEME","CLASSIFICATION_TYPE":"U","FILE":"3210616","BSTAR":"0.00003161700000","MEAN_ELEMENT_THEORY":"SGP4","EPOCH":"2021-11-10T09:37:55.056288","LAUNCH_DATE":"2021-01-20","MEAN_MOTION":"15.06398866","TLE_LINE2":"2 47375  53.0556 315.8170 0001627  74.1021 286.0148 15.06398866 45817","OBJECT_ID":"2021-005AC","COUNTRY_CODE":"US","SITE":"AFETR","OBJECT_TYPE":"PAYLOAD","REV_AT_EPOCH":"4581","TLE_LINE1":"1 47375U 21005AC  21314.40133167  .00000189  00000-0  31617-4 0  9990","RA_OF_ASC_NODE":"315.8170","EPHEMERIS_TYPE":"0","APOAPSIS":"548.344","DECAY_DATE":null},{"FILE":"3211038","CLASSIFICATION_TYPE":"U","REF_FRAME":"TEME","BSTAR":"0.00037923000000","RCS_SIZE":"LARGE","NORAD_CAT_ID":"47376","INCLINATION":"53.0555","SEMIMAJOR_AXIS":"6925.308","ELEMENT_SET_NO":"999","PERIOD":"95.591","OBJECT_NAME":"STARLINK-2096","MEAN_ANOMALY":"291.8823","ARG_OF_PERICENTER":"68.2308","ECCENTRICITY":"0.00013390","MEAN_MOTION_DOT":"0.00005374","PERIAPSIS":"546.246","CENTER_NAME":"EARTH","GP_ID":"189425380","MEAN_MOTION_DDOT":"0.0000000000000","TIME_SYSTEM":"UTC","RA_OF_ASC_NODE":"315.7954","DECAY_DATE":null,"APOAPSIS":"548.101","EPHEMERIS_TYPE":"0","TLE_LINE1":"1 47376U 21005AD  21314.40500619  .00005374  00000-0  37923-3 0  9997","REV_AT_EPOCH":"4485","OBJECT_TYPE":"PAYLOAD","SITE":"AFETR","LAUNCH_DATE":"2021-01-20","EPOCH":"2021-11-10T09:43:12.534816","MEAN_ELEMENT_THEORY":"SGP4","COUNTRY_CODE":"US","OBJECT_ID":"2021-005AD","TLE_LINE2":"2 47376  53.0555 315.7954 0001339  68.2308 291.8823 15.06413105 44859","MEAN_MOTION":"15.06413105"},{"SITE":"AFETR","TLE_LINE1":"1 47377U 21005AE  21314.39026727  .00001166  00000-0  97186-4 0  9992","REV_AT_EPOCH":"4485","OBJECT_TYPE":"PAYLOAD","EPHEMERIS_TYPE":"0","DECAY_DATE":null,"APOAPSIS":"548.493","RA_OF_ASC_NODE":"315.8071","MEAN_MOTION":"15.06404165","TLE_LINE2":"2 47377  53.0586 315.8071 0001866  49.5847 310.5305 15.06404165 44850","OBJECT_ID":"2021-005AE","COUNTRY_CODE":"US","MEAN_ELEMENT_THEORY":"SGP4","LAUNCH_DATE":"2021-01-20","EPOCH":"2021-11-10T09:21:59.092128","MEAN_ANOMALY":"310.5305","ELEMENT_SET_NO":"999","PERIOD":"95.592","OBJECT_NAME":"STARLINK-2097","SEMIMAJOR_AXIS":"6925.336","RCS_SIZE":"LARGE","NORAD_CAT_ID":"47377","INCLINATION":"53.0586","BSTAR":"0.00009718600000","CLASSIFICATION_TYPE":"U","REF_FRAME":"TEME","FILE":"3210758","TIME_SYSTEM":"UTC","MEAN_MOTION_DDOT":"0.0000000000000","CENTER_NAME":"EARTH","PERIAPSIS":"545.909","MEAN_MOTION_DOT":"0.00001166","GP_ID":"189373479","ECCENTRICITY":"0.00018660","ARG_OF_PERICENTER":"49.5847"},{"BSTAR":"0.00045985000000","CLASSIFICATION_TYPE":"U","REF_FRAME":"TEME","FILE":"3211038","MEAN_ANOMALY":"294.9513","ELEMENT_SET_NO":"999","PERIOD":"95.591","OBJECT_NAME":"STARLINK-2098","SEMIMAJOR_AXIS":"6925.304","RCS_SIZE":"LARGE","NORAD_CAT_ID":"47378","INCLINATION":"53.0557","ECCENTRICITY":"0.00016150","ARG_OF_PERICENTER":"65.1644","TIME_SYSTEM":"UTC","MEAN_MOTION_DDOT":"0.0000000000000","MEAN_MOTION_DOT":"0.00006577","PERIAPSIS":"546.051","CENTER_NAME":"EARTH","GP_ID":"189423955","EPHEMERIS_TYPE":"0","DECAY_DATE":null,"APOAPSIS":"548.288","RA_OF_ASC_NODE":"276.4848","SITE":"AFETR","TLE_LINE1":"1 47378U 21005AF  21314.25020716  .00006577  00000-0  45985-3 0  9990","REV_AT_EPOCH":"4539","OBJECT_TYPE":"PAYLOAD","TLE_LINE2":"2 47378  53.0557 276.4848 0001615  65.1644 294.9513 15.06414452 45390","MEAN_MOTION":"15.06414452","OBJECT_ID":"2021-005AF","COUNTRY_CODE":"US","MEAN_ELEMENT_THEORY":"SGP4","LAUNCH_DATE":"2021-01-20","EPOCH":"2021-11-10T06:00:17.898624"},{"FILE":"3210640","REF_FRAME":"TEME","CLASSIFICATION_TYPE":"U","BSTAR":"0.00011031000000","NORAD_CAT_ID":"47379","INCLINATION":"53.0550","RCS_SIZE":"LARGE","SEMIMAJOR_AXIS":"6925.373","OBJECT_NAME":"STARLINK-2099","PERIOD":"95.593","ELEMENT_SET_NO":"999","MEAN_ANOMALY":"291.5641","ARG_OF_PERICENTER":"68.5527","ECCENTRICITY":"0.00016760","GP_ID":"189370451","PERIAPSIS":"546.077","CENTER_NAME":"EARTH","MEAN_MOTION_DOT":"0.00001362","MEAN_MOTION_DDOT":"0.0000000000000","TIME_SYSTEM":"UTC","RA_OF_ASC_NODE":"275.8519","APOAPSIS":"548.399","DECAY_DATE":null,"EPHEMERIS_TYPE":"0","OBJECT_TYPE":"PAYLOAD","REV_AT_EPOCH":"4541","TLE_LINE1":"1 47379U 21005AG  21314.39027201  .00001362  00000-0  11031-3 0  9994","SITE":"AFETR","EPOCH":"2021-11-10T09:21:59.501664","LAUNCH_DATE":"2021-01-20","MEAN_ELEMENT_THEORY":"SGP4","COUNTRY_CODE":"US","OBJECT_ID":"2021-005AG","TLE_LINE2":"2 47379  53.0550 275.8519 0001676  68.5527 291.5641 15.06392019 45418","MEAN_MOTION":"15.06392019"},{"ARG_OF_PERICENTER":"69.0322","ECCENTRICITY":"0.00012410","MEAN_MOTION_DDOT":"0.0000000000000","PERIAPSIS":"546.372","MEAN_MOTION_DOT":"0.00001121","CENTER_NAME":"EARTH","GP_ID":"189424881","TIME_SYSTEM":"UTC","CLASSIFICATION_TYPE":"U","REF_FRAME":"TEME","FILE":"3211038","BSTAR":"0.00009415600000","SEMIMAJOR_AXIS":"6925.367","RCS_SIZE":"LARGE","INCLINATION":"53.0551","NORAD_CAT_ID":"47380","MEAN_ANOMALY":"291.0799","PERIOD":"95.593","ELEMENT_SET_NO":"999","OBJECT_NAME":"STARLINK-2100","MEAN_ELEMENT_THEORY":"SGP4","LAUNCH_DATE":"2021-01-20","EPOCH":"2021-11-10T06:52:02.521056","TLE_LINE2":"2 47380  53.0551 286.3354 0001241  69.0322 291.0799 15.06394139 45269","OBJECT_ID":"2021-005AH","MEAN_MOTION":"15.06394139","COUNTRY_CODE":"US","RA_OF_ASC_NODE":"286.3354","EPHEMERIS_TYPE":"0","DECAY_DATE":null,"APOAPSIS":"548.091","SITE":"AFETR","TLE_LINE1":"1 47380U 21005AH  21314.28614029  .00001121  00000-0  94156-4 0  9997","REV_AT_EPOCH":"4526","OBJECT_TYPE":"PAYLOAD"},{"MEAN_ANOMALY":"292.1185","ELEMENT_SET_NO":"999","PERIOD":"95.592","OBJECT_NAME":"STARLINK-2101","SEMIMAJOR_AXIS":"6925.334","RCS_SIZE":"LARGE","INCLINATION":"53.0556","NORAD_CAT_ID":"47381","BSTAR":"0.00015704000000","CLASSIFICATION_TYPE":"U","REF_FRAME":"TEME","FILE":"3211038","TIME_SYSTEM":"UTC","MEAN_MOTION_DDOT":"0.0000000000000","PERIAPSIS":"546.126","CENTER_NAME":"EARTH","MEAN_MOTION_DOT":"0.00002059","GP_ID":"189423705","ECCENTRICITY":"0.00015490","ARG_OF_PERICENTER":"67.9968","SITE":"AFETR","TLE_LINE1":"1 47381U 21005AJ  21314.42664862  .00002059  00000-0  15704-3 0  9996","REV_AT_EPOCH":"4521","OBJECT_TYPE":"PAYLOAD","EPHEMERIS_TYPE":"0","DECAY_DATE":null,"APOAPSIS":"548.271","RA_OF_ASC_NODE":"290.7035","TLE_LINE2":"2 47381  53.0556 290.7035 0001549  67.9968 292.1185 15.06404859 45211","OBJECT_ID":"2021-005AJ","MEAN_MOTION":"15.06404859","COUNTRY_CODE":"US","MEAN_ELEMENT_THEORY":"SGP4","LAUNCH_DATE":"2021-01-20","EPOCH":"2021-11-10T10:14:22.440768"},{"OBJECT_TYPE":"PAYLOAD","REV_AT_EPOCH":"4621","TLE_LINE1":"1 47382U 21005AK  21314.41145447  .00000486  00000-0  51512-4 0  9999","SITE":"AFETR","APOAPSIS":"548.175","DECAY_DATE":null,"EPHEMERIS_TYPE":"0","RA_OF_ASC_NODE":"285.7564","COUNTRY_CODE":"US","OBJECT_ID":"2021-005AK","TLE_LINE2":"2 47382  53.0525 285.7564 0001376  65.3734 294.7398 15.06397318 46216","MEAN_MOTION":"15.06397318","EPOCH":"2021-11-10T09:52:29.666208","LAUNCH_DATE":"2021-01-20","MEAN_ELEMENT_THEORY":"SGP4","OBJECT_NAME":"STARLINK-2102","ELEMENT_SET_NO":"999","PERIOD":"95.592","MEAN_ANOMALY":"294.7398","NORAD_CAT_ID":"47382","INCLINATION":"53.0525","RCS_SIZE":"LARGE","SEMIMAJOR_AXIS":"6925.357","BSTAR":"0.00005151200000","FILE":"3210617","REF_FRAME":"TEME","CLASSIFICATION_TYPE":"U","TIME_SYSTEM":"UTC","GP_ID":"189369969","PERIAPSIS":"546.269","MEAN_MOTION_DOT":"0.00000486","CENTER_NAME":"EARTH","MEAN_MOTION_DDOT":"0.0000000000000","ECCENTRICITY":"0.00013760","ARG_OF_PERICENTER":"65.3734"},{"MEAN_ANOMALY":"299.8646","OBJECT_NAME":"STARLINK-2103","PERIOD":"95.592","ELEMENT_SET_NO":"999","SEMIMAJOR_AXIS":"6925.322","INCLINATION":"53.0552","NORAD_CAT_ID":"47383","RCS_SIZE":"LARGE","BSTAR":"0.00002293500000","REF_FRAME":"TEME","CLASSIFICATION_TYPE":"U","FILE":"3210617","TIME_SYSTEM":"UTC","MEAN_MOTION_DDOT":"0.0000000000000","GP_ID":"189369961","PERIAPSIS":"546.115","CENTER_NAME":"EARTH","MEAN_MOTION_DOT":"0.00000060","ECCENTRICITY":"0.00015480","ARG_OF_PERICENTER":"60.2496","SITE":"AFETR","OBJECT_TYPE":"PAYLOAD","TLE_LINE1":"1 47383U 21005AL  21314.36352599  .00000060  00000-0  22935-4 0  9997","REV_AT_EPOCH":"4541","EPHEMERIS_TYPE":"0","APOAPSIS":"548.259","DECAY_DATE":null,"RA_OF_ASC_NODE":"275.9813","TLE_LINE2":"2 47383  53.0552 275.9813 0001548  60.2496 299.8646 15.06408799 45414","MEAN_MOTION":"15.06408799","OBJECT_ID":"2021-005AL","COUNTRY_CODE":"US","MEAN_ELEMENT_THEORY":"SGP4","EPOCH":"2021-11-10T08:43:28.645536","LAUNCH_DATE":"2021-01-20"}];
